NORAD_CAT_ID,OBJECT_NAME,OBJECT_TYPE,EPOCH,MEAN_MOTION,ECCENTRICITY,INCLINATION,RA_OF_ASC_NODE,ARG_OF_PERICENTER,MEAN_ANOMALY,BSTAR,MEAN_MOTION_DOT,MEAN_MOTION_DDOT,TLE_LINE0,TLE_LINE1,TLE_LINE2,SEMIMAJOR_AXIS,PERIOD,APOGEE,PERIGEE,DECAYED
50803.0,STARLINK-3321,PAYLOAD,2024-02-21 01:39:59,15.08840382,0.0001454,53.2176,285.3169,100.554,259.5616,2.4114e-05,9.6e-07,0.0,0 STARLINK-3321,1 50803U 22001A   24052.06943894  .00000096  00000-0  24114-4 0  9998,2 50803  53.2176 285.3169 0001454 100.5540 259.5616 15.08840382118817,6917.879,95.438,540.75,538.738,0.0
50803.0,STARLINK-3321,PAYLOAD,2024-02-21 08:01:31,15.08843672,0.0001389,53.217,284.1285,93.8361,266.279,-5.8183e-06,-3.81e-06,0.0,0 STARLINK-3321,1 50803U 22001A   24052.33439761 -.00000381  00000-0 -58183-5 0  9994,2 50803  53.2170 284.1285 0001389  93.8361 266.2790 15.08843672117585,6917.869,95.437,540.695,538.773,0.0
50803.0,STARLINK-3321,PAYLOAD,2024-02-21 19:09:14,15.08830468,0.0001535,53.2172,282.0482,99.3677,260.7489,1.1042e-05,-1.12e-06,0.0,0 STARLINK-3321,1 50803U 22001A   24052.79808781 -.00000112  00000-0  11042-4 0  9999,2 50803  53.2172 282.0482 0001535  99.3677 260.7489 15.08830468118929,6917.91,95.438,540.836,538.713,0.0
50803.0,STARLINK-3321,PAYLOAD,2024-02-21 22:20:00,15.08833057,0.0001464,53.217,281.4554,98.6997,261.4161,2.3659e-05,8.9e-07,0.0,0 STARLINK-3321,1 50803U 22001A   24052.93056646  .00000089  00000-0  23659-4 0  9999,2 50803  53.2170 281.4554 0001464  98.6997 261.4161 15.08833057117671,6917.902,95.438,540.779,538.754,0.0
50803.0,STARLINK-3321,PAYLOAD,2024-02-22 19:00:01,15.08843685,0.0001674,53.2174,277.5892,117.0473,243.069,-2.2054e-05,-6.39e-06,0.0,0 STARLINK-3321,1 50803U 22001A   24053.79168337 -.00000639  00000-0 -22054-4 0  9996,2 50803  53.2174 277.5892 0001674 117.0473 243.0690 15.08843685119071,6917.869,95.437,540.892,538.576,0.0
50803.0,STARLINK-3321,PAYLOAD,2024-02-22 22:10:47,15.08845431,0.0001425,53.2168,276.9954,101.8956,258.2196,1.8005e-05,-1e-08,0.0,0 STARLINK-3321,1 50803U 22001A   24053.92416104 -.00000001  00000-0  18005-4 0  9992,2 50803  53.2168 276.9954 0001425 101.8956 258.2196 15.08845431117828,6917.864,95.437,540.715,538.743,0.0
50803.0,STARLINK-3321,PAYLOAD,2024-02-23 07:43:06,15.08839636,0.0001735,53.2182,275.2074,80.4365,279.6823,3.8553e-06,-2.27e-06,0.0,0 STARLINK-3321,1 50803U 22001A   24054.32160587 -.00000227  00000-0  38553-5 0  9999,2 50803  53.2182 275.2074 0001735  80.4365 279.6823 15.08839636117889,6917.882,95.438,540.947,538.546,0.0
50803.0,STARLINK-3321,PAYLOAD,2024-02-23 20:26:12,15.08833189,0.0001724,53.2178,272.8315,87.7875,272.3315,-2.4478e-05,-6.78e-06,0.0,0 STARLINK-3321,1 50803U 22001A   24054.85153283 -.00000678  00000-0 -24478-4 0  9993,2 50803  53.2178 272.8315 0001724  87.7875 272.3315 15.08833189119233,6917.901,95.438,540.959,538.574,0.0
50803.0,STARLINK-3321,PAYLOAD,2024-02-23 22:01:35,15.08833115,0.0001548,53.2169,272.5342,86.2054,273.9115,-1.2772e-05,-4.91e-06,0.0,0 STARLINK-3321,1 50803U 22001A   24054.91777226 -.00000491  00000-0 -12772-4 0  9996,2 50803  53.2169 272.5342 0001548  86.2054 273.9115 15.08833115117970,6917.901,95.438,540.837,538.696,0.0
50803.0,STARLINK-3321,PAYLOAD,2024-02-24 07:33:54,15.08838445,0.0001633,53.2174,270.7508,88.5646,271.5533,2.3925e-05,9.3e-07,0.0,0 STARLINK-3321,1 50803U 22001A   24055.31520869  .00000093  00000-0  23925-4 0  9998,2 50803  53.2174 270.7508 0001633  88.5646 271.5533 15.08838445119305,6917.885,95.438,540.88,538.62,0.0
50803.0,STARLINK-3321,PAYLOAD,2024-02-24 20:16:58,15.08847563,0.000153,53.2167,268.3717,85.6941,274.4226,4.2939e-05,3.96e-06,0.0,0 STARLINK-3321,1 50803U 22001A   24055.84512147  .00000396  00000-0  42939-4 0  9998,2 50803  53.2167 268.3717 0001530  85.6941 274.4226 15.08847563119384,6917.857,95.437,540.781,538.664,0.0
50803.0,STARLINK-3321,PAYLOAD,2024-02-25 13:46:13,15.08839114,0.0001585,53.2166,265.0997,81.6779,278.4393,8.8864e-05,1.127e-05,0.0,0 STARLINK-3321,1 50803U 22001A   24056.57376299  .00001127  00000-0  88864-4 0  9995,2 50803  53.2166 265.0997 0001585  81.6779 278.4393 15.08839114118226,6917.883,95.438,540.845,538.652,0.0
50803.0,STARLINK-3321,PAYLOAD,2024-02-25 20:07:45,15.08844737,0.0001572,53.2151,263.9077,89.518,270.5993,0.00013186,1.811e-05,0.0,0 STARLINK-3321,1 50803U 22001A   24056.83871732  .00001811  00000-0  13186-3 0  9990,2 50803  53.2151 263.9077 0001572  89.5180 270.5993 15.08844737118265,6917.866,95.437,540.818,538.643,0.0
50803.0,STARLINK-3321,PAYLOAD,2024-02-26 13:37:00,15.08838569,0.0001326,53.2129,260.6398,80.5146,279.5996,-2.9471e-05,-7.57e-06,0.0,0 STARLINK-3321,1 50803U 22001A   24057.56736581 -.00000757  00000-0 -29471-4 0  9998,2 50803  53.2129 260.6398 0001326  80.5146 279.5996 15.08838569118370,6917.885,95.438,540.667,538.832,0.0
50803.0,STARLINK-3321,PAYLOAD,2024-02-26 19:58:33,15.08845964,0.0001285,53.2145,259.4492,86.2284,273.8855,-0.0001725,-3.033e-05,0.0,0 STARLINK-3321,1 50803U 22001A   24057.83232742 -.00003033  00000-0 -17250-3 0  9999,2 50803  53.2145 259.4492 0001285  86.2284 273.8855 15.08845964119682,6917.862,95.437,540.616,538.838,0.0
50803.0,STARLINK-3321,PAYLOAD,2024-02-27 19:49:19,15.08843258,0.0001382,53.215,254.9873,93.569,266.5461,1.0248e-05,-1.25e-06,0.0,0 STARLINK-3321,1 50803U 22001A   24058.82592105 -.00000125  00000-0  10248-4 0  9990,2 50803  53.2150 254.9873 0001382  93.5690 266.5461 15.08843258118563,6917.87,95.437,540.691,538.779,0.0
50803.0,STARLINK-3321,PAYLOAD,2024-02-27 23:00:05,15.08847396,0.0001476,53.2159,254.3907,101.8888,258.2269,-2.5368e-05,-6.92e-06,0.0,0 STARLINK-3321,1 50803U 22001A   24058.95839922 -.00000692  00000-0 -25368-4 0  9994,2 50803  53.2159 254.3907 0001476 101.8888 258.2269 15.08847396119854,6917.858,95.437,540.744,538.702,0.0
50803.0,STARLINK-3321,PAYLOAD,2024-02-28 13:18:35,15.08830268,0.000138,53.2161,251.7126,98.8789,261.236,-2.5248e-05,-6.9e-06,0.0,0 STARLINK-3321,1 50803U 22001A   24059.55457217 -.00000690  00000-0 -25248-4 0  9999,2 50803  53.2161 251.7126 0001380  98.8789 261.2360 15.08830268118675,6917.91,95.438,540.73,538.82,0.0
50803.0,STARLINK-3321,PAYLOAD,2024-02-28 19:40:06,15.08842766,0.0001573,53.2169,250.5218,107.7696,252.3468,6.2603e-05,7.09e-06,0.0,0 STARLINK-3321,1 50803U 22001A   24059.81952140  .00000709  00000-0  62603-4 0  9998,2 50803  53.2169 250.5218 0001573 107.7696 252.3468 15.08842766119984,6917.872,95.437,540.825,538.649,0.0
50803.0,STARLINK-3321,PAYLOAD,2024-02-29 11:33:58,15.08841811,0.0001556,53.2169,247.554,93.7216,266.3954,-1.7571e-05,-5.68e-06,0.0,0 STARLINK-3321,1 50803U 22001A   24060.48192748 -.00000568  00000-0 -17571-4 0  9992,2 50803  53.2169 247.5540 0001556  93.7216 266.3954 15.08841811120089,6917.875,95.437,540.816,538.663,0.0
50803.0,STARLINK-3321,PAYLOAD,2024-02-29 21:06:17,15.08837182,0.0001486,53.2174,245.7708,94.9461,265.1701,3.4211e-05,2.57e-06,0.0,0 STARLINK-3321,1 50803U 22001A   24060.87936774  .00000257  00000-0  34211-4 0  9993,2 50803  53.2174 245.7708 0001486  94.9461 265.1701 15.08837182118875,6917.889,95.438,540.782,538.726,0.0
50803.0,STARLINK-3321,PAYLOAD,2024-03-01 05:03:13,15.08838831,0.0001443,53.2172,244.2835,90.7493,269.3664,-2.4118e-05,-6.72e-06,0.0,0 STARLINK-3321,1 50803U 22001A   24061.21056897 -.00000672  00000-0 -24118-4 0  9999,2 50803  53.2172 244.2835 0001443  90.7493 269.3664 15.08838831118922,6917.884,95.438,540.747,538.751,0.0
50803.0,STARLINK-3321,PAYLOAD,2024-03-01 19:21:41,15.08839,0.0001538,53.2173,241.6065,95.0263,265.0904,-2.3899e-05,-6.68e-06,0.0,0 STARLINK-3321,1 50803U 22001A   24061.80673108 -.00000668  00000-0 -23899-4 0  9994,2 50803  53.2173 241.6065 0001538  95.0263 265.0904 15.08839000120288,6917.883,95.438,540.812,538.684,0.0
50803.0,STARLINK-3321,PAYLOAD,2024-03-02 19:12:28,15.08838015,0.0001429,53.2171,237.145,84.5165,275.599,-8.0921e-06,-4.17e-06,0.0,0 STARLINK-3321,1 50803U 22001A   24062.80033354 -.00000417  00000-0 -80921-5 0  9990,2 50803  53.2171 237.1450 0001429  84.5165 275.5990 15.08838015119168,6917.886,95.438,540.74,538.763,0.0
50803.0,STARLINK-3321,PAYLOAD,2024-03-03 04:44:47,15.0883787,0.000148,53.2176,235.3618,85.2442,274.8719,2.7559e-05,1.51e-06,0.0,0 STARLINK-3321,1 50803U 22001A   24063.19777315  .00000151  00000-0  27559-4 0  9995,2 50803  53.2176 235.3618 0001480  85.2442 274.8719 15.08837870120499,6917.887,95.438,540.776,538.728,0.0
50803.0,STARLINK-3321,PAYLOAD,2024-03-03 20:38:38,15.0884981,0.0001417,53.2168,232.386,91.9178,268.1977,7.2856e-05,8.72e-06,0.0,0 STARLINK-3321,1 50803U 22001A   24063.86016439  .00000872  00000-0  72856-4 0  9992,2 50803  53.2168 232.3860 0001417  91.9178 268.1977 15.08849810119325,6917.85,95.437,540.696,538.735,0.0
50803.0,STARLINK-3321,PAYLOAD,2024-03-04 04:35:33,15.08846072,0.00014,53.217,230.8996,81.8765,278.2386,9.0208e-05,1.148e-05,0.0,0 STARLINK-3321,1 50803U 22001A   24064.19136485  .00001148  00000-0  90208-4 0  9991,2 50803  53.2170 230.8996 0001400  81.8765 278.2386 15.08846072119371,6917.862,95.437,540.695,538.758,0.0
50803.0,STARLINK-3321,PAYLOAD,2024-03-04 17:18:43,15.08783436,0.0001862,53.2181,228.521,119.0961,241.0218,-0.00049094,-8.081e-05,0.0,0 STARLINK-3321,1 50803U 22001A   24064.72133615 -.00008081  00000-0 -49094-3 0  9993,2 50803  53.2181 228.5210 0001862 119.0961 241.0218 15.08783436120727,6918.053,95.441,541.206,538.63,0.0
50803.0,STARLINK-3321,PAYLOAD,2024-03-05 01:15:36,15.08820934,0.0001737,53.2174,227.0352,64.8615,295.2557,-0.00016031,-2.837e-05,0.0,0 STARLINK-3321,1 50803U 22001A   24065.05250399 -.00002837  00000-0 -16031-3 0  9997,2 50803  53.2174 227.0352 0001737  64.8615 295.2557 15.08820934120771,6917.939,95.439,541.005,538.602,0.0
50803.0,STARLINK-3321,PAYLOAD,2024-03-05 13:58:40,15.08833581,0.0001834,53.2181,224.6559,118.5,241.6177,-7.1883e-05,-1.432e-05,0.0,0 STARLINK-3321,1 50803U 22001A   24065.58241390 -.00001432  00000-0 -71883-4 0  9993,2 50803  53.2181 224.6559 0001834 118.5000 241.6177 15.08833581119586,6917.9,95.438,541.034,538.496,0.0
